{
  "type": "FeatureCollection",
  "features": [
    {
      "type": "Feature",
      "properties": {
        "norad_id": 28051,
        "name": "IRS-P6 (RESOURCESAT-1)",
        "group": "resource",
        "lat": 55.69400235030264,
        "lon": -142.56519928072217,
        "alt_km": 745.4805244040881,
        "timestamp": "2025-12-10T16:57:11.291149+00:00",
        "meta_object_name": "IRS-P6 (RESOURCESAT-1)",
        "meta_object_id": "2003-046A",
        "meta_epoch": "2025-12-10T13:45:29.626848",
        "meta_mean_motion": 14.36073511,
        "meta_eccentricity": 0.0063964,
        "meta_inclination": 98.2176,
        "meta_ra_of_asc_node": 25.0803,
        "meta_arg_of_pericenter": 187.1911,
        "meta_mean_anomaly": 329.0079,
        "meta_ephemeris_type": 0,
        "meta_classification_type": "U",
        "meta_norad_cat_id": 28051,
        "meta_element_set_no": 999,
        "meta_rev_at_epoch": 15345,
        "meta_bstar": 0.00012381,
        "meta_mean_motion_dot": 3.28e-06,
        "meta_mean_motion_ddot": 0,
        "tle_line1": "1 28051U 03046A   25344.57325957  .00000328  00000+0  12381-3 0  9990",
        "tle_line2": "2 28051  98.2176  25.0803 0063964 187.1911 329.0079 14.36073511153454"
      },
      "geometry": {
        "type": "Point",
        "coordinates": [
          -142.56519928072217,
          55.69400235030264
        ]
      }
    },
    {
      "type": "Feature",
      "properties": {
        "norad_id": 28220,
        "name": "SHIYAN-1 (SY-1)",
        "group": "resource",
        "lat": 44.36919201385943,
        "lon": 38.324163870365645,
        "alt_km": 476.6298983225961,
        "timestamp": "2025-12-10T16:57:11.291160+00:00",
        "meta_object_name": "SHIYAN-1 (SY-1)",
        "meta_object_id": "2004-012A",
        "meta_epoch": "2025-12-10T04:11:03.635232",
        "meta_mean_motion": 15.28033489,
        "meta_eccentricity": 0.00057877,
        "meta_inclination": 97.8933,
        "meta_ra_of_asc_node": 45.561,
        "meta_arg_of_pericenter": 335.8258,
        "meta_mean_anomaly": 24.2708,
        "meta_ephemeris_type": 0,
        "meta_classification_type": "U",
        "meta_norad_cat_id": 28220,
        "meta_element_set_no": 999,
        "meta_rev_at_epoch": 18217,
        "meta_bstar": 0.00067493114,
        "meta_mean_motion_dot": 0.00018409,
        "meta_mean_motion_ddot": 0,
        "tle_line1": "1 28220U 04012A   25344.17434763  .00018409  00000+0  67493-3 0  9997",
        "tle_line2": "2 28220  97.8933  45.5610 0005787 335.8258  24.2708 15.28033489182172"
      },
      "geometry": {
        "type": "Point",
        "coordinates": [
          38.324163870365645,
          44.36919201385943
        ]
      }
    },
    {
      "type": "Feature",
      "properties": {
        "norad_id": 28376,
        "name": "AURA",
        "group": "resource",
        "lat": -28.832401790806408,
        "lon": 110.30392483635353,
        "alt_km": 696.3801776064856,
        "timestamp": "2025-12-10T16:57:11.291171+00:00",
        "meta_object_name": "AURA",
        "meta_object_id": "2004-026A",
        "meta_epoch": "2025-12-10T11:04:04.764000",
        "meta_mean_motion": 14.60938361,
        "meta_eccentricity": 0.0001198,
        "meta_inclination": 98.3182,
        "meta_ra_of_asc_node": 294.6772,
        "meta_arg_of_pericenter": 93.9724,
        "meta_mean_anomaly": 266.1613,
        "meta_ephemeris_type": 0,
        "meta_classification_type": "U",
        "meta_norad_cat_id": 28376,
        "meta_element_set_no": 999,
        "meta_rev_at_epoch": 13865,
        "meta_bstar": 0.0003739,
        "meta_mean_motion_dot": 1.784e-05,
        "meta_mean_motion_ddot": 0,
        "tle_line1": "1 28376U 04026A   25344.46116625  .00001784  00000+0  37390-3 0  9991",
        "tle_line2": "2 28376  98.3182 294.6772 0001198  93.9724 266.1613 14.60938361138658"
      },
      "geometry": {
        "type": "Point",
        "coordinates": [
          110.30392483635353,
          -28.832401790806408
        ]
      }
    },
    {
      "type": "Feature",
      "properties": {
        "norad_id": 28649,
        "name": "IRS-P5 (CARTOSAT-1)",
        "group": "resource",
        "lat": -26.714789156230164,
        "lon": -172.61739412071088,
        "alt_km": 603.3769053892556,
        "timestamp": "2025-12-10T16:57:11.291182+00:00",
        "meta_object_name": "IRS-P5 (CARTOSAT-1)",
        "meta_object_id": "2005-017A",
        "meta_epoch": "2025-12-10T11:11:38.274144",
        "meta_mean_motion": 14.90392047,
        "meta_eccentricity": 0.0001358,
        "meta_inclination": 97.5497,
        "meta_ra_of_asc_node": 10.9804,
        "meta_arg_of_pericenter": 46.7941,
        "meta_mean_anomaly": 313.3391,
        "meta_ephemeris_type": 0,
        "meta_classification_type": "U",
        "meta_norad_cat_id": 28649,
        "meta_element_set_no": 999,
        "meta_rev_at_epoch": 11570,
        "meta_bstar": 0.000235,
        "meta_mean_motion_dot": 2.236e-05,
        "meta_mean_motion_ddot": 0,
        "tle_line1": "1 28649U 05017A   25344.46641521  .00002236  00000+0  23500-3 0  9994",
        "tle_line2": "2 28649  97.5497  10.9804 0001358  46.7941 313.3391 14.90392047115708"
      },
      "geometry": {
        "type": "Point",
        "coordinates": [
          -172.61739412071088,
          -26.714789156230164
        ]
      }
    },
    {
      "type": "Feature",
      "properties": {
        "norad_id": 28893,
        "name": "SINAH 1",
        "group": "resource",
        "lat": 32.72129045215081,
        "lon": 107.90243152502762,
        "alt_km": 682.0783706286111,
        "timestamp": "2025-12-10T16:57:11.291192+00:00",
        "meta_object_name": "SINAH 1",
        "meta_object_id": "2005-043D",
        "meta_epoch": "2025-12-10T11:52:51.666816",
        "meta_mean_motion": 14.63958727,
        "meta_eccentricity": 0.001523,
        "meta_inclination": 98.2602,
        "meta_ra_of_asc_node": 113.0463,
        "meta_arg_of_pericenter": 143.6458,
        "meta_mean_anomaly": 216.5782,
        "meta_ephemeris_type": 0,
        "meta_classification_type": "U",
        "meta_norad_cat_id": 28893,
        "meta_element_set_no": 999,
        "meta_rev_at_epoch": 7291,
        "meta_bstar": 0.00016979,
        "meta_mean_motion_dot": 8.41e-06,
        "meta_mean_motion_ddot": 0,
        "tle_line1": "1 28893U 05043D   25344.49504244  .00000841  00000+0  16979-3 0  9999",
        "tle_line2": "2 28893  98.2602 113.0463 0015230 143.6458 216.5782 14.63958727 72911"
      },
      "geometry": {
        "type": "Point",
        "coordinates": [
          107.90243152502762,
          32.72129045215081
        ]
      }
    },
    {
      "type": "Feature",
      "properties": {
        "norad_id": 29079,
        "name": "EROS B",
        "group": "resource",
        "lat": 3.2617030419877056,
        "lon": 100.76253941848643,
        "alt_km": 368.68836393980473,
        "timestamp": "2025-12-10T16:57:11.291202+00:00",
        "meta_object_name": "EROS B",
        "meta_object_id": "2006-014A",
        "meta_epoch": "2025-12-10T13:52:28.760160",
        "meta_mean_motion": 15.67349653,
        "meta_eccentricity": 0.0001825,
        "meta_inclination": 97.3475,
        "meta_ra_of_asc_node": 101.0497,
        "meta_arg_of_pericenter": 292.0307,
        "meta_mean_anomaly": 68.076,
        "meta_ephemeris_type": 0,
        "meta_classification_type": "U",
        "meta_norad_cat_id": 29079,
        "meta_element_set_no": 999,
        "meta_rev_at_epoch": 9046,
        "meta_bstar": 0.0017509,
        "meta_mean_motion_dot": 0.00192527,
        "meta_mean_motion_ddot": 0,
        "tle_line1": "1 29079U 06014A   25344.57811065  .00192527  00000+0  17509-2 0  9998",
        "tle_line2": "2 29079  97.3475 101.0497 0001825 292.0307  68.0760 15.67349653 90460"
      },
      "geometry": {
        "type": "Point",
        "coordinates": [
          100.76253941848643,
          3.2617030419877056
        ]
      }
    },
    {
      "type": "Feature",
      "properties": {
        "norad_id": 29228,
        "name": "RESURS-DK 1",
        "group": "resource",
        "lat": -36.41613144262039,
        "lon": 91.44947160176861,
        "alt_km": 532.82346842874,
        "timestamp": "2025-12-10T16:57:11.291213+00:00",
        "meta_object_name": "RESURS-DK 1",
        "meta_object_id": "2006-021A",
        "meta_epoch": "2025-12-10T12:21:47.683008",
        "meta_mean_motion": 15.12141279,
        "meta_eccentricity": 0.0007457,
        "meta_inclination": 69.9336,
        "meta_ra_of_asc_node": 107.5872,
        "meta_arg_of_pericenter": 261.4245,
        "meta_mean_anomaly": 98.6075,
        "meta_ephemeris_type": 0,
        "meta_classification_type": "U",
        "meta_norad_cat_id": 29228,
        "meta_element_set_no": 999,
        "meta_rev_at_epoch": 7404,
        "meta_bstar": 0.00024714,
        "meta_mean_motion_dot": 4.166e-05,
        "meta_mean_motion_ddot": 0,
        "tle_line1": "1 29228U 06021A   25344.51513522  .00004166  00000+0  24714-3 0  9991",
        "tle_line2": "2 29228  69.9336 107.5872 0007457 261.4245  98.6075 15.12141279 74041"
      },
      "geometry": {
        "type": "Point",
        "coordinates": [
          91.44947160176861,
          -36.41613144262039
        ]
      }
    }
  ]
}